{
  "type": "FeatureCollection",
  "features": [
    {
      "type": "Feature",
      "properties": {
        "norad_id": 41330,
        "name": "COSMOS 2514 (751)",
        "group": "gnss",
        "lat": 48.05974650182677,
        "lon": 108.16143676408169,
        "alt_km": 19127.117222455763,
        "timestamp": "2025-12-17T09:00:17.392071+00:00",
        "meta_object_name": "COSMOS 2514 (751)",
        "meta_object_id": "2016-008A",
        "meta_epoch": "2025-12-16T06:34:00.333408",
        "meta_mean_motion": 2.13102686,
        "meta_eccentricity": 0.0011947,
        "meta_inclination": 65.1318,
        "meta_ra_of_asc_node": 319.2829,
        "meta_arg_of_pericenter": 220.1378,
        "meta_mean_anomaly": 139.7678,
        "meta_ephemeris_type": 0,
        "meta_classification_type": "U",
        "meta_norad_cat_id": 41330,
        "meta_element_set_no": 999,
        "meta_rev_at_epoch": 7672,
        "meta_bstar": 0,
        "meta_mean_motion_dot": -6.9e-07,
        "meta_mean_motion_ddot": 0,
        "tle_line1": "1 41330U 16008A   25350.27361497 -.00000069  00000+0  00000+0 0  9994",
        "tle_line2": "2 41330  65.1318 319.2829 0011947 220.1378 139.7678  2.13102686 76728"
      },
      "geometry": {
        "type": "Point",
        "coordinates": [
          108.16143676408169,
          48.05974650182677
        ]
      }
    },
    {
      "type": "Feature",
      "properties": {
        "norad_id": 41384,
        "name": "IRNSS-1F",
        "group": "gnss",
        "lat": 2.236431223736137,
        "lon": -106.32373969685376,
        "alt_km": 35700.825657512294,
        "timestamp": "2025-12-17T09:00:17.392084+00:00",
        "meta_object_name": "IRNSS-1F",
        "meta_object_id": "2016-015A",
        "meta_epoch": "2025-12-16T01:31:33.976416",
        "meta_mean_motion": 1.00274269,
        "meta_eccentricity": 0.00226076,
        "meta_inclination": 4.8892,
        "meta_ra_of_asc_node": 101.217,
        "meta_arg_of_pericenter": 181.0816,
        "meta_mean_anomaly": 217.9315,
        "meta_ephemeris_type": 0,
        "meta_classification_type": "U",
        "meta_norad_cat_id": 41384,
        "meta_element_set_no": 999,
        "meta_rev_at_epoch": 3583,
        "meta_bstar": 0,
        "meta_mean_motion_dot": 1.79e-06,
        "meta_mean_motion_ddot": 0,
        "tle_line1": "1 41384U 16015A   25350.06358769  .00000179  00000+0  00000+0 0  9997",
        "tle_line2": "2 41384   4.8892 101.2170 0022607 181.0816 217.9315  1.00274269 35835"
      },
      "geometry": {
        "type": "Point",
        "coordinates": [
          -106.32373969685376,
          2.236431223736137
        ]
      }
    },
    {
      "type": "Feature",
      "properties": {
        "norad_id": 41434,
        "name": "BEIDOU-2 IGSO-6 (C13)",
        "group": "gnss",
        "lat": -59.593037836839194,
        "lon": -39.94453130279902,
        "alt_km": 35604.39920958183,
        "timestamp": "2025-12-17T09:00:17.392107+00:00",
        "meta_object_name": "BEIDOU-2 IGSO-6 (C13)",
        "meta_object_id": "2016-021A",
        "meta_epoch": "2025-12-11T15:29:12.615360",
        "meta_mean_motion": 1.00293077,
        "meta_eccentricity": 0.00608616,
        "meta_inclination": 59.9644,
        "meta_ra_of_asc_node": 39.9082,
        "meta_arg_of_pericenter": 229.9753,
        "meta_mean_anomaly": 135.9177,
        "meta_ephemeris_type": 0,
        "meta_classification_type": "U",
        "meta_norad_cat_id": 41434,
        "meta_element_set_no": 999,
        "meta_rev_at_epoch": 3560,
        "meta_bstar": 0,
        "meta_mean_motion_dot": -1.62e-06,
        "meta_mean_motion_ddot": 0,
        "tle_line1": "1 41434U 16021A   25345.64528490 -.00000162  00000+0  00000+0 0  9991",
        "tle_line2": "2 41434  59.9644  39.9082 0060861 229.9753 135.9177  1.00293077 35600"
      },
      "geometry": {
        "type": "Point",
        "coordinates": [
          -39.94453130279902,
          -59.593037836839194
        ]
      }
    },
    {
      "type": "Feature",
      "properties": {
        "norad_id": 41469,
        "name": "IRNSS-1G",
        "group": "gnss",
        "lat": -4.422425538535519,
        "lon": -9.327611038887708,
        "alt_km": 35783.783108456206,
        "timestamp": "2025-12-17T09:00:17.392135+00:00",
        "meta_object_name": "IRNSS-1G",
        "meta_object_id": "2016-027A",
        "meta_epoch": "2025-12-16T17:23:45.360384",
        "meta_mean_motion": 1.00278258,
        "meta_eccentricity": 0.00025864,
        "meta_inclination": 4.7437,
        "meta_ra_of_asc_node": 101.9946,
        "meta_arg_of_pericenter": 332.608,
        "meta_mean_anomaly": 41.3785,
        "meta_ephemeris_type": 0,
        "meta_classification_type": "U",
        "meta_norad_cat_id": 41469,
        "meta_element_set_no": 999,
        "meta_rev_at_epoch": 3535,
        "meta_bstar": 0,
        "meta_mean_motion_dot": -3.13e-06,
        "meta_mean_motion_ddot": 0,
        "tle_line1": "1 41469U 16027A   25350.72483056 -.00000313  00000+0  00000+0 0  9996",
        "tle_line2": "2 41469   4.7437 101.9946 0002586 332.6080  41.3785  1.00278258 35351"
      },
      "geometry": {
        "type": "Point",
        "coordinates": [
          -9.327611038887708,
          -4.422425538535519
        ]
      }
    },
    {
      "type": "Feature",
      "properties": {
        "norad_id": 41549,
        "name": "GSAT0211 (GALILEO 14)",
        "group": "gnss",
        "lat": -53.273356878304085,
        "lon": 115.61576417705952,
        "alt_km": 23233.931420091933,
        "timestamp": "2025-12-17T09:00:17.392154+00:00",
        "meta_object_name": "GSAT0211 (GALILEO 14)",
        "meta_object_id": "2016-030A",
        "meta_epoch": "2025-12-14T00:32:28.498848",
        "meta_mean_motion": 1.70473201,
        "meta_eccentricity": 0.000407,
        "meta_inclination": 55.1518,
        "meta_ra_of_asc_node": 226.7881,
        "meta_arg_of_pericenter": 16.5595,
        "meta_mean_anomaly": 343.5367,
        "meta_ephemeris_type": 0,
        "meta_classification_type": "U",
        "meta_norad_cat_id": 41549,
        "meta_element_set_no": 999,
        "meta_rev_at_epoch": 5951,
        "meta_bstar": 0,
        "meta_mean_motion_dot": 2.8e-07,
        "meta_mean_motion_ddot": 0,
        "tle_line1": "1 41549U 16030A   25348.02255207  .00000028  00000+0  00000+0 0  9996",
        "tle_line2": "2 41549  55.1518 226.7881 0004070  16.5595 343.5367  1.70473201 59512"
      },
      "geometry": {
        "type": "Point",
        "coordinates": [
          115.61576417705952,
          -53.273356878304085
        ]
      }
    },
    {
      "type": "Feature",
      "properties": {
        "norad_id": 41550,
        "name": "GSAT0210 (GALILEO 13)",
        "group": "gnss",
        "lat": 54.016030739140156,
        "lon": -26.774456933999996,
        "alt_km": 23218.004247797395,
        "timestamp": "2025-12-17T09:00:17.392172+00:00",
        "meta_object_name": "GSAT0210 (GALILEO 13)",
        "meta_object_id": "2016-030B",
        "meta_epoch": "2025-12-14T06:43:07.791456",
        "meta_mean_motion": 1.70473679,
        "meta_eccentricity": 9.538e-05,
        "meta_inclination": 55.1512,
        "meta_ra_of_asc_node": 226.7791,
        "meta_arg_of_pericenter": 236.3511,
        "meta_mean_anomaly": 123.7237,
        "meta_ephemeris_type": 0,
        "meta_classification_type": "U",
        "meta_norad_cat_id": 41550,
        "meta_element_set_no": 999,
        "meta_rev_at_epoch": 5951,
        "meta_bstar": 0,
        "meta_mean_motion_dot": 3e-07,
        "meta_mean_motion_ddot": 0,
        "tle_line1": "1 41550U 16030B   25348.27995129  .00000030  00000+0  00000+0 0  9992",
        "tle_line2": "2 41550  55.1512 226.7791 0000953 236.3511 123.7237  1.70473679 59517"
      },
      "geometry": {
        "type": "Point",
        "coordinates": [
          -26.774456933999996,
          54.016030739140156
        ]
      }
    },
    {
      "type": "Feature",
      "properties": {
        "norad_id": 41586,
        "name": "BEIDOU-2 G7 (C03)",
        "group": "gnss",
        "lat": -1.7637714660988015,
        "lon": -28.296233815406907,
        "alt_km": 35789.532084841216,
        "timestamp": "2025-12-17T09:00:17.392191+00:00",
        "meta_object_name": "BEIDOU-2 G7 (C03)",
        "meta_object_id": "2016-037A",
        "meta_epoch": "2025-12-16T21:14:09.225600",
        "meta_mean_motion": 1.00273338,
        "meta_eccentricity": 0.00050451,
        "meta_inclination": 1.767,
        "meta_ra_of_asc_node": 67.812,
        "meta_arg_of_pericenter": 3.4551,
        "meta_mean_anomaly": 83.4859,
        "meta_ephemeris_type": 0,
        "meta_classification_type": "U",
        "meta_norad_cat_id": 41586,
        "meta_element_set_no": 999,
        "meta_rev_at_epoch": 506,
        "meta_bstar": 0,
        "meta_mean_motion_dot": -3.3e-06,
        "meta_mean_motion_ddot": 0,
        "tle_line1": "1 41586U 16037A   25350.88482900 -.00000330  00000+0  00000+0 0  9990",
        "tle_line2": "2 41586   1.7670  67.8120 0005045   3.4551  83.4859  1.00273338  5068"
      },
      "geometry": {
        "type": "Point",
        "coordinates": [
          -28.296233815406907,
          -1.7637714660988015
        ]
      }
    }
  ]
}